ORBCOMM FM20            
1 25416U 98046D   25260.00829087  .00000650  00000+0  26292-3 0  9998
2 25416  44.9936 106.3777 0001389  51.0948 309.0023 14.37371118417470
ORBCOMM FM16            
1 25417U 98046E   25260.93517814  .00001040  00000+0  37857-3 0  9996
2 25417  44.9931  92.3212 0004870  54.6762 305.4541 14.39134482417619
ORBCOMM FM15            
1 25418U 98046F   25259.96230503  .00000876  00000+0  32858-3 0  9997
2 25418  44.9962 102.3643 0004662  48.3388 311.7859 14.38773332417464
ORBCOMM FM14            
1 25419U 98046G   25260.51198888  .00000883  00000+0  32841-3 0  9990
2 25419  44.9952  97.7218 0003386  49.5236 310.5907 14.39151513417515
ORBCOMM FM13            
1 25420U 98046H   25260.01256899  .00000817  00000+0  31514-3 0  9997
2 25420  44.9967 108.9768 0005503  25.1387 334.9728 14.37862143416457
ORBCOMM FM21            
1 25475U 98053A   25260.24881325  .00000695  00000+0  27694-3 0  9996
2 25475  45.0077 193.4709 0003294 326.0367  34.0270 14.37510165410493
ORBCOMM FM22            
1 25476U 98053B   25260.14848672  .00000965  00000+0  35831-3 0  9996
2 25476  45.0070 188.0440 0005031 328.7336  31.3213 14.38597445410512
ORBCOMM FM23            
1 25477U 98053C   25260.16782867  .00000886  00000+0  33873-3 0  9998
2 25477  45.0077 195.8427 0004330 322.8630  37.1918 14.37713909410637
